NORAD_CAT_ID,OBJECT_NAME,OBJECT_TYPE,EPOCH,MEAN_MOTION,ECCENTRICITY,INCLINATION,RA_OF_ASC_NODE,ARG_OF_PERICENTER,MEAN_ANOMALY,BSTAR,MEAN_MOTION_DOT,MEAN_MOTION_DDOT,TLE_LINE0,TLE_LINE1,TLE_LINE2,SEMIMAJOR_AXIS,PERIOD,APOGEE,PERIGEE,DECAYED
53018.0,STARLINK-4279,PAYLOAD,2023-05-22 02:31:59,15.08840622,8.28e-05,53.2174,354.9392,98.329,261.7796,-7.6877e-05,-1.511e-05,0.0,0 STARLINK-4279,1 53018U 22076AJ  23142.10555504 -.00001511  00000-0 -76877-4 0  9990,2 53018  53.2174 354.9392 0000828  98.3290 261.7796 15.08840622 49079,6917.878,95.438,540.316,539.171,0.0
53018.0,STARLINK-4279,PAYLOAD,2023-05-22 13:39:41,15.08846845,0.0001198,53.2189,352.8533,93.5261,266.5868,3.0191e-05,1.93e-06,0.0,0 STARLINK-4279,1 53018U 22076AJ  23142.56923035  .00000193  00000-0  30191-4 0  9990,2 53018  53.2189 352.8533 0001198  93.5261 266.5868 15.08846845 48676,6917.859,95.437,540.553,538.896,0.0
53018.0,STARLINK-4279,PAYLOAD,2023-05-22 20:01:13,15.08850113,0.0001101,53.2173,351.6653,82.7291,277.3827,0.00014295,1.989e-05,0.0,0 STARLINK-4279,1 53018U 22076AJ  23142.83418584  .00001989  00000-0  14295-3 0  9998,2 53018  53.2173 351.6653 0001101  82.7291 277.3827 15.08850113 49181,6917.849,95.437,540.476,538.953,0.0
53018.0,STARLINK-4279,PAYLOAD,2023-05-23 02:22:45,15.08862369,0.0001195,53.2175,350.4752,81.1922,278.9206,0.00028549,4.261e-05,0.0,0 STARLINK-4279,1 53018U 22076AJ  23143.09913911  .00004261  00000-0  28549-3 0  9994,2 53018  53.2175 350.4752 0001195  81.1922 278.9206 15.08862369 49226,6917.812,95.436,540.504,538.85,0.0
53018.0,STARLINK-4279,PAYLOAD,2023-05-23 05:33:33,15.08825309,0.0001307,53.2162,349.8841,84.2987,275.8154,-0.00015023,-2.677e-05,0.0,0 STARLINK-4279,1 53018U 22076AJ  23143.23163575 -.00002677  00000-0 -15023-3 0  9997,2 53018  53.2162 349.8841 0001307  84.2987 275.8154 15.08825309 49246,6917.925,95.438,540.694,538.886,0.0
53018.0,STARLINK-4279,PAYLOAD,2023-05-23 19:52:01,15.08841998,0.0001146,53.2168,347.2043,91.2528,268.8595,0.00036094,5.461e-05,0.0,0 STARLINK-4279,1 53018U 22076AJ  23143.82779280  .00005461  00000-0  36094-3 0  9991,2 53018  53.2168 347.2043 0001146  91.2528 268.8595 15.08841998 49331,6917.874,95.437,540.532,538.946,0.0
53018.0,STARLINK-4279,PAYLOAD,2023-05-23 21:27:24,15.08841458,0.0001142,53.2169,346.907,91.2642,268.8481,0.00040543,6.171e-05,0.0,0 STARLINK-4279,1 53018U 22076AJ  23143.89403331  .00006171  00000-0  40543-3 0  9992,2 53018  53.2169 346.9070 0001142  91.2642 268.8481 15.08841458 48874,6917.876,95.437,540.531,538.951,0.0
53018.0,STARLINK-4279,PAYLOAD,2023-05-24 03:48:57,15.08835021,0.0001162,53.2169,345.7174,86.1491,273.9634,0.00038254,5.805e-05,0.0,0 STARLINK-4279,1 53018U 22076AJ  23144.15899646  .00005805  00000-0  38254-3 0  9999,2 53018  53.2169 345.7174 0001162  86.1491 273.9634 15.08835021 49386,6917.896,95.438,540.564,538.957,0.0
53018.0,STARLINK-4279,PAYLOAD,2023-05-24 16:32:02,15.08838297,0.0001136,53.217,343.3386,86.4898,273.6224,0.000628,9.72e-05,0.0,0 STARLINK-4279,1 53018U 22076AJ  23144.68892003  .00009720  00000-0  62800-3 0  9991,2 53018  53.2170 343.3386 0001136  86.4898 273.6224 15.08838297 48998,6917.886,95.438,540.536,538.965,0.0
53018.0,STARLINK-4279,PAYLOAD,2023-05-25 17:58:13,15.08840969,0.0001195,53.2175,338.5804,85.4879,274.6249,0.00039383,5.986e-05,0.0,0 STARLINK-4279,1 53018U 22076AJ  23145.74876321  .00005986  00000-0  39383-3 0  9994,2 53018  53.2175 338.5804 0001195  85.4879 274.6249 15.08840969 49625,6917.877,95.437,540.569,538.916,0.0
53018.0,STARLINK-4279,PAYLOAD,2023-05-25 19:33:36,15.08841966,0.0001083,53.2175,338.2832,85.9343,274.1773,0.0003881,5.894e-05,0.0,0 STARLINK-4279,1 53018U 22076AJ  23145.81500303  .00005894  00000-0  38810-3 0  9998,2 53018  53.2175 338.2832 0001083  85.9343 274.1773 15.08841966 49164,6917.874,95.437,540.489,538.99,0.0
53018.0,STARLINK-4279,PAYLOAD,2023-05-26 13:02:50,15.08846576,0.0001104,53.2172,335.0118,84.1595,275.9523,0.00033412,5.035e-05,0.0,0 STARLINK-4279,1 53018U 22076AJ  23146.54364149  .00005035  00000-0  33412-3 0  9995,2 53018  53.2172 335.0118 0001104  84.1595 275.9523 15.08846576 49273,6917.86,95.437,540.489,538.962,0.0
53018.0,STARLINK-4279,PAYLOAD,2023-05-26 19:24:22,15.08848659,0.0001148,53.2174,333.8222,94.8937,265.2186,0.00027031,4.018e-05,0.0,0 STARLINK-4279,1 53018U 22076AJ  23146.80859888  .00004018  00000-0  27031-3 0  9993,2 53018  53.2174 333.8222 0001148  94.8937 265.2186 15.08848659 49319,6917.854,95.437,540.513,538.925,0.0
53018.0,STARLINK-4279,PAYLOAD,2023-05-27 11:18:14,15.08842227,0.0001169,53.2168,330.8511,83.0731,277.0394,9.3425e-05,1.199e-05,0.0,0 STARLINK-4279,1 53018U 22076AJ  23147.47100027  .00001199  00000-0  93425-4 0  9999,2 53018  53.2168 330.8511 0001169  83.0731 277.0394 15.08842227 49884,6917.874,95.437,540.547,538.93,0.0
53018.0,STARLINK-4279,PAYLOAD,2023-05-27 19:15:10,15.08842749,0.0001082,53.2171,329.3637,90.8001,269.3115,8.805e-05,1.114e-05,0.0,0 STARLINK-4279,1 53018U 22076AJ  23147.80219950  .00001114  00000-0  88050-4 0  9997,2 53018  53.2171 329.3637 0001082  90.8001 269.3115 15.08842749 49468,6917.872,95.437,540.486,538.988,0.0
53018.0,STARLINK-4279,PAYLOAD,2023-05-28 04:47:28,15.08842694,0.0001072,53.217,327.5796,89.4413,270.6702,7.2085e-05,8.6e-06,0.0,0 STARLINK-4279,1 53018U 22076AJ  23148.19963919  .00000860  00000-0  72085-4 0  9999,2 53018  53.2170 327.5796 0001072  89.4413 270.6702 15.08842694 49526,6917.872,95.437,540.479,538.996,0.0
53018.0,STARLINK-4279,PAYLOAD,2023-05-28 19:05:57,15.08844644,0.0001051,53.2176,324.9032,92.798,267.3133,3.5889e-05,2.84e-06,0.0,0 STARLINK-4279,1 53018U 22076AJ  23148.79580000  .00000284  00000-0  35889-4 0  9992,2 53018  53.2176 324.9032 0001051  92.7980 267.3133 15.08844644 50080,6917.866,95.437,540.458,539.004,0.0
53018.0,STARLINK-4279,PAYLOAD,2023-05-28 20:41:20,15.08847314,0.0001067,53.2176,324.6058,94.8607,265.2507,5.6042e-05,6.04e-06,0.0,0 STARLINK-4279,1 53018U 22076AJ  23148.86203751  .00000604  00000-0  56042-4 0  9995,2 53018  53.2176 324.6058 0001067  94.8607 265.2507 15.08847314 49628,6917.858,95.437,540.461,538.985,0.0
53018.0,STARLINK-4279,PAYLOAD,2023-05-29 04:38:16,15.08842716,0.0001078,53.2176,323.1191,112.6371,247.4735,-2.591e-05,-7e-06,0.0,0 STARLINK-4279,1 53018U 22076AJ  23149.19324087 -.00000700  00000-0 -25910-4 0  9997,2 53018  53.2176 323.1191 0001078 112.6371 247.4735 15.08842716 49670,6917.872,95.437,540.483,538.991,0.0
53018.0,STARLINK-4279,PAYLOAD,2023-05-29 17:21:21,15.08838393,0.0001035,53.2176,320.7399,100.4692,259.6417,5.1497e-05,5.32e-06,0.0,0 STARLINK-4279,1 53018U 22076AJ  23149.72316320  .00000532  00000-0  51497-4 0  9997,2 53018  53.2176 320.7399 0001035 100.4692 259.6417 15.08838393 50228,6917.885,95.438,540.466,539.034,0.0
53018.0,STARLINK-4279,PAYLOAD,2023-05-29 18:56:44,15.08840071,0.0001035,53.2177,320.4426,99.7327,260.3782,6.3769e-05,7.27e-06,0.0,0 STARLINK-4279,1 53018U 22076AJ  23149.78940180  .00000727  00000-0  63769-4 0  9991,2 53018  53.2177 320.4426 0001035  99.7327 260.3782 15.08840071 49769,6917.88,95.438,540.461,539.029,0.0
53018.0,STARLINK-4279,PAYLOAD,2023-05-30 10:50:36,15.0882043,0.0001218,53.2183,317.4666,93.4145,266.6987,0.00023381,3.433e-05,0.0,0 STARLINK-4279,1 53018U 22076AJ  23150.45181117  .00003433  00000-0  23381-3 0  9996,2 53018  53.2183 317.4666 0001218  93.4145 266.6987 15.08820430 50338,6917.94,95.439,540.648,538.963,0.0
53018.0,STARLINK-4279,PAYLOAD,2023-05-30 15:36:43,15.08885519,0.0001424,53.2179,316.5748,73.3574,286.7575,-0.00060611,-9.933e-05,0.0,0 STARLINK-4279,1 53018U 22076AJ  23150.65050807 -.00009933  00000-0 -60611-3 0  9999,2 53018  53.2179 316.5748 0001424  73.3574 286.7575 15.08885519 50364,6917.741,95.435,540.591,538.621,0.0
53018.0,STARLINK-4279,PAYLOAD,2023-05-30 17:12:08,15.08842119,0.0001119,53.2181,316.2775,90.3844,269.7276,3.9542e-05,3.42e-06,0.0,0 STARLINK-4279,1 53018U 22076AJ  23150.71676271  .00000342  00000-0  39542-4 0  9998,2 53018  53.2181 316.2775 0001119  90.3844 269.7276 15.08842119 49900,6917.874,95.437,540.513,538.965,0.0
53018.0,STARLINK-4279,PAYLOAD,2023-05-31 04:19:50,15.08834182,0.0001127,53.2178,314.1962,92.3775,267.7346,0.00017818,2.549e-05,0.0,0 STARLINK-4279,1 53018U 22076AJ  23151.18044483  .00002549  00000-0  17818-3 0  9996,2 53018  53.2178 314.1962 0001127  92.3775 267.7346 15.08834182 50443,6917.898,95.438,540.543,538.984,0.0
53018.0,STARLINK-4279,PAYLOAD,2023-05-31 20:13:40,15.08849309,0.0001084,53.2176,311.2243,85.2171,274.8945,0.00012904,1.767e-05,0.0,0 STARLINK-4279,1 53018U 22076AJ  23151.84283535  .00001767  00000-0  12904-3 0  9994,2 53018  53.2176 311.2243 0001084  85.2171 274.8945 15.08849309 50074,6917.852,95.437,540.467,538.967,0.0
53018.0,STARLINK-4279,PAYLOAD,2023-06-01 04:10:36,15.08844288,0.0001019,53.2178,309.7383,81.6987,278.4121,8.9708e-05,1.14e-05,0.0,0 STARLINK-4279,1 53018U 22076AJ  23152.17403900  .00001140  00000-0  89708-4 0  9993,2 53018  53.2178 309.7383 0001019  81.6987 278.4121 15.08844288 50590,6917.867,95.437,540.437,539.027,0.0
53018.0,STARLINK-4279,PAYLOAD,2023-06-02 13:33:43,15.08836031,9.59e-05,53.2186,303.4921,97.1226,262.9875,1.0462e-05,-1.21e-06,0.0,0 STARLINK-4279,1 53018U 22076AJ  23153.56508697 -.00000121  00000-0  10462-4 0  9996,2 53018  53.2186 303.4921 0000959  97.1226 262.9875 15.08836031 50331,6917.893,95.438,540.421,539.094,0.0
53018.0,STARLINK-4279,PAYLOAD,2023-06-02 16:44:29,15.08842582,0.0001017,53.2177,302.8974,83.0301,277.0807,-1.5949e-05,-5.42e-06,0.0,0 STARLINK-4279,1 53018U 22076AJ  23153.69756442 -.00000542  00000-0 -15949-4 0  9996,2 53018  53.2177 302.8974 0001017  83.0301 277.0807 15.08842582 50820,6917.872,95.437,540.441,539.034,0.0
53018.0,STARLINK-4279,PAYLOAD,2023-06-02 19:55:15,15.08841971,0.0001007,53.2172,302.3042,83.35,276.7606,1.0099e-05,-1.27e-06,0.0,0 STARLINK-4279,1 53018U 22076AJ  23153.83004399 -.00000127  00000-0  10099-4 0  9998,2 53018  53.2172 302.3042 0001007  83.3500 276.7606 15.08841971 50373,6917.874,95.437,540.436,539.043,0.0
